{
  "links" : {
    "next" : "https://api.nasa.gov/neo/rest/v1/feed?start_date=2007-06-09&end_date=2007-06-09&detailed=true&api_key=t0TVs3DtDT2H8Oy2Zy8m2eVrNsAVKAexjcZXUckd",
    "prev" : "https://api.nasa.gov/neo/rest/v1/feed?start_date=2007-06-07&end_date=2007-06-07&detailed=true&api_key=t0TVs3DtDT2H8Oy2Zy8m2eVrNsAVKAexjcZXUckd",
    "self" : "https://api.nasa.gov/neo/rest/v1/feed?start_date=2007-06-08&end_date=2007-06-08&detailed=true&api_key=t0TVs3DtDT2H8Oy2Zy8m2eVrNsAVKAexjcZXUckd"
  },
  "element_count" : 8,
  "near_earth_objects" : {
    "2007-06-08" : [ {
      "links" : {
        "self" : "https://api.nasa.gov/neo/rest/v1/neo/3359282?api_key=t0TVs3DtDT2H8Oy2Zy8m2eVrNsAVKAexjcZXUckd"
      },
      "neo_reference_id" : "3359282",
      "name" : "(2006 WN3)",
      "nasa_jpl_url" : "http://ssd.jpl.nasa.gov/sbdb.cgi?sstr=3359282",
      "absolute_magnitude_h" : 19.8,
      "estimated_diameter" : {
        "kilometers" : {
          "estimated_diameter_min" : 0.2914439045,
          "estimated_diameter_max" : 0.6516883822
        },
        "meters" : {
          "estimated_diameter_min" : 291.4439045349,
          "estimated_diameter_max" : 651.6883821679
        },
        "miles" : {
          "estimated_diameter_min" : 0.1810947904,
          "estimated_diameter_max" : 0.4049402617
        },
        "feet" : {
          "estimated_diameter_min" : 956.1808197541,
          "estimated_diameter_max" : 2138.0853117517
        }
      },
      "is_potentially_hazardous_asteroid" : false,
      "close_approach_data" : [ {
        "close_approach_date" : "2007-06-08",
        "epoch_date_close_approach" : 1181286000000,
        "relative_velocity" : {
          "kilometers_per_second" : "26.2215682645",
          "kilometers_per_hour" : "94397.645752052",
          "miles_per_hour" : "58655.0260507681"
        },
        "miss_distance" : {
          "astronomical" : "0.3998402072",
          "lunar" : "155.5378417969",
          "kilometers" : "59815244",
          "miles" : "37167468"
        },
        "orbiting_body" : "Earth"
      } ],
      "orbital_data" : {
        "orbit_id" : "21",
        "orbit_determination_date" : "2017-04-06 09:07:35",
        "orbit_uncertainty" : "0",
        "minimum_orbit_intersection" : ".0774422",
        "jupiter_tisserand_invariant" : "3.799",
        "epoch_osculation" : "2458000.5",
        "eccentricity" : ".5033261138710857",
        "semi_major_axis" : "1.803858929735558",
        "inclination" : "26.00855437327913",
        "ascending_node_longitude" : "245.035014796077",
        "orbital_period" : "884.9164794246959",
        "perihelion_distance" : ".8959296246601037",
        "perihelion_argument" : "294.5954333439843",
        "aphelion_distance" : "2.711788234811013",
        "perihelion_time" : "2457757.773343225997",
        "mean_anomaly" : "98.74558613198144",
        "mean_motion" : ".4068180538733374",
        "equinox" : "J2000"
      }
    }, {
      "links" : {
        "self" : "https://api.nasa.gov/neo/rest/v1/neo/3566605?api_key=t0TVs3DtDT2H8Oy2Zy8m2eVrNsAVKAexjcZXUckd"
      },
      "neo_reference_id" : "3566605",
      "name" : "(2011 KR12)",
      "nasa_jpl_url" : "http://ssd.jpl.nasa.gov/sbdb.cgi?sstr=3566605",
      "absolute_magnitude_h" : 21.2,
      "estimated_diameter" : {
        "kilometers" : {
          "estimated_diameter_min" : 0.1529519353,
          "estimated_diameter_max" : 0.3420109247
        },
        "meters" : {
          "estimated_diameter_min" : 152.9519353442,
          "estimated_diameter_max" : 342.0109247198
        },
        "miles" : {
          "estimated_diameter_min" : 0.095039897,
          "estimated_diameter_max" : 0.2125156703
        },
        "feet" : {
          "estimated_diameter_min" : 501.8108275547,
          "estimated_diameter_max" : 1122.0831222578
        }
      },
      "is_potentially_hazardous_asteroid" : false,
      "close_approach_data" : [ {
        "close_approach_date" : "2007-06-08",
        "epoch_date_close_approach" : 1181286000000,
        "relative_velocity" : {
          "kilometers_per_second" : "19.9910539611",
          "kilometers_per_hour" : "71967.7942601382",
          "miles_per_hour" : "44717.9886056953"
        },
        "miss_distance" : {
          "astronomical" : "0.3071458665",
          "lunar" : "119.4797439575",
          "kilometers" : "45948368",
          "miles" : "28550992"
        },
        "orbiting_body" : "Earth"
      } ],
      "orbital_data" : {
        "orbit_id" : "23",
        "orbit_determination_date" : "2017-05-24 06:17:22",
        "orbit_uncertainty" : "1",
        "minimum_orbit_intersection" : ".119044",
        "jupiter_tisserand_invariant" : "5.970",
        "epoch_osculation" : "2458000.5",
        "eccentricity" : ".3805393889932386",
        "semi_major_axis" : "1.007804671536975",
        "inclination" : "7.422343302172266",
        "ascending_node_longitude" : "20.30306609987332",
        "orbital_period" : "369.5412960032762",
        "perihelion_distance" : ".6242952976057631",
        "perihelion_argument" : "1.567125831780297",
        "aphelion_distance" : "1.391314045468187",
        "perihelion_time" : "2458019.322504126321",
        "mean_anomaly" : "341.6634796739586",
        "mean_motion" : ".9741807042772518",
        "equinox" : "J2000"
      }
    }, {
      "links" : {
        "self" : "https://api.nasa.gov/neo/rest/v1/neo/3739056?api_key=t0TVs3DtDT2H8Oy2Zy8m2eVrNsAVKAexjcZXUckd"
      },
      "neo_reference_id" : "3739056",
      "name" : "(2015 YT9)",
      "nasa_jpl_url" : "http://ssd.jpl.nasa.gov/sbdb.cgi?sstr=3739056",
      "absolute_magnitude_h" : 20.7,
      "estimated_diameter" : {
        "kilometers" : {
          "estimated_diameter_min" : 0.1925550782,
          "estimated_diameter_max" : 0.4305662442
        },
        "meters" : {
          "estimated_diameter_min" : 192.5550781879,
          "estimated_diameter_max" : 430.566244241
        },
        "miles" : {
          "estimated_diameter_min" : 0.1196481415,
          "estimated_diameter_max" : 0.2675413778
        },
        "feet" : {
          "estimated_diameter_min" : 631.7424027221,
          "estimated_diameter_max" : 1412.6189567557
        }
      },
      "is_potentially_hazardous_asteroid" : false,
      "close_approach_data" : [ {
        "close_approach_date" : "2007-06-08",
        "epoch_date_close_approach" : 1181286000000,
        "relative_velocity" : {
          "kilometers_per_second" : "25.6892485799",
          "kilometers_per_hour" : "92481.2948877613",
          "miles_per_hour" : "57464.2801484537"
        },
        "miss_distance" : {
          "astronomical" : "0.2542012151",
          "lunar" : "98.8842697144",
          "kilometers" : "38027960",
          "miles" : "23629478"
        },
        "orbiting_body" : "Earth"
      } ],
      "orbital_data" : {
        "orbit_id" : "14",
        "orbit_determination_date" : "2017-04-06 08:29:35",
        "orbit_uncertainty" : "6",
        "minimum_orbit_intersection" : ".109481",
        "jupiter_tisserand_invariant" : "4.078",
        "epoch_osculation" : "2458000.5",
        "eccentricity" : ".6204091628671289",
        "semi_major_axis" : "1.616750199149076",
        "inclination" : "10.41605768089966",
        "ascending_node_longitude" : "125.9556863604443",
        "orbital_period" : "750.8666432996556",
        "perihelion_distance" : ".6137035615297338",
        "perihelion_argument" : "232.4511779795397",
        "aphelion_distance" : "2.619796836768418",
        "perihelion_time" : "2458062.941481125158",
        "mean_anomaly" : "330.0626823609131",
        "mean_motion" : ".4794459884620701",
        "equinox" : "J2000"
      }
    } ]
  }
}